[{"OBJECT_NAME":"KUIPER-00035","OBJECT_ID":"2025-088AA","EPOCH":"2026-03-09T19:37:38.004672","MEAN_MOTION":14.83315571,"ECCENTRICITY":0.00039621,"INCLINATION":51.8988,"RA_OF_ASC_NODE":113.2976,"ARG_OF_PERICENTER":72.796,"MEAN_ANOMALY":287.3437,"EPHEMERIS_TYPE":0,"CLASSIFICATION_TYPE":"U","NORAD_CAT_ID":63748,"ELEMENT_SET_NO":999,"REV_AT_EPOCH":4753,"BSTAR":0.00069796671,"MEAN_MOTION_DOT":5.547e-5,"MEAN_MOTION_DDOT":0},{"OBJECT_NAME":"PSLV R\/B","OBJECT_ID":"2012-047C","EPOCH":"2026-03-09T21:55:40.189440","MEAN_MOTION":14.8317446,"ECCENTRICITY":0.00047268,"INCLINATION":98.3159,"RA_OF_ASC_NODE":269.5137,"ARG_OF_PERICENTER":333.0926,"MEAN_ANOMALY":27.0041,"EPHEMERIS_TYPE":0,"CLASSIFICATION_TYPE":"U","NORAD_CAT_ID":38757,"ELEMENT_SET_NO":999,"REV_AT_EPOCH":72816,"BSTAR":0.00015491234,"MEAN_MOTION_DOT":1.206e-5,"MEAN_MOTION_DDOT":0}]
